{
  "links" : {
    "next" : "https://api.nasa.gov/neo/rest/v1/feed?start_date=2010-12-09&end_date=2010-12-09&detailed=true&api_key=t0TVs3DtDT2H8Oy2Zy8m2eVrNsAVKAexjcZXUckd",
    "prev" : "https://api.nasa.gov/neo/rest/v1/feed?start_date=2010-12-07&end_date=2010-12-07&detailed=true&api_key=t0TVs3DtDT2H8Oy2Zy8m2eVrNsAVKAexjcZXUckd",
    "self" : "https://api.nasa.gov/neo/rest/v1/feed?start_date=2010-12-08&end_date=2010-12-08&detailed=true&api_key=t0TVs3DtDT2H8Oy2Zy8m2eVrNsAVKAexjcZXUckd"
  },
  "element_count" : 7,
  "near_earth_objects" : {
    "2010-12-08" : [ {
      "links" : {
        "self" : "https://api.nasa.gov/neo/rest/v1/neo/3550889?api_key=t0TVs3DtDT2H8Oy2Zy8m2eVrNsAVKAexjcZXUckd"
      },
      "neo_reference_id" : "3550889",
      "name" : "(2010 SC41)",
      "nasa_jpl_url" : "http://ssd.jpl.nasa.gov/sbdb.cgi?sstr=3550889",
      "absolute_magnitude_h" : 19.8,
      "estimated_diameter" : {
        "kilometers" : {
          "estimated_diameter_min" : 0.2914439045,
          "estimated_diameter_max" : 0.6516883822
        },
        "meters" : {
          "estimated_diameter_min" : 291.4439045349,
          "estimated_diameter_max" : 651.6883821679
        },
        "miles" : {
          "estimated_diameter_min" : 0.1810947904,
          "estimated_diameter_max" : 0.4049402617
        },
        "feet" : {
          "estimated_diameter_min" : 956.1808197541,
          "estimated_diameter_max" : 2138.0853117517
        }
      },
      "is_potentially_hazardous_asteroid" : true,
      "close_approach_data" : [ {
        "close_approach_date" : "2010-12-08",
        "epoch_date_close_approach" : 1291795200000,
        "relative_velocity" : {
          "kilometers_per_second" : "14.4036755343",
          "kilometers_per_hour" : "51853.231923422",
          "miles_per_hour" : "32219.5818026397"
        },
        "miss_distance" : {
          "astronomical" : "0.0447715733",
          "lunar" : "17.41614151",
          "kilometers" : "6697732.5",
          "miles" : "4161778"
        },
        "orbiting_body" : "Earth"
      } ],
      "orbital_data" : {
        "orbit_id" : "40",
        "orbit_determination_date" : "2017-04-06 08:56:29",
        "orbit_uncertainty" : "0",
        "minimum_orbit_intersection" : ".00110985",
        "jupiter_tisserand_invariant" : "3.742",
        "epoch_osculation" : "2458000.5",
        "eccentricity" : ".6074477960806909",
        "semi_major_axis" : "1.864647710084989",
        "inclination" : ".2476719460469025",
        "ascending_node_longitude" : "236.6859228467889",
        "orbital_period" : "930.0228417104261",
        "perihelion_distance" : ".7319715681269554",
        "perihelion_argument" : "266.4440883385259",
        "aphelion_distance" : "2.997323852043023",
        "perihelion_time" : "2458371.751613645916",
        "mean_anomaly" : "216.2932275225305",
        "mean_motion" : ".3870872669513319",
        "equinox" : "J2000"
      }
    }, {
      "links" : {
        "self" : "https://api.nasa.gov/neo/rest/v1/neo/3553284?api_key=t0TVs3DtDT2H8Oy2Zy8m2eVrNsAVKAexjcZXUckd"
      },
      "neo_reference_id" : "3553284",
      "name" : "(2010 XD25)",
      "nasa_jpl_url" : "http://ssd.jpl.nasa.gov/sbdb.cgi?sstr=3553284",
      "absolute_magnitude_h" : 20.7,
      "estimated_diameter" : {
        "kilometers" : {
          "estimated_diameter_min" : 0.1925550782,
          "estimated_diameter_max" : 0.4305662442
        },
        "meters" : {
          "estimated_diameter_min" : 192.5550781879,
          "estimated_diameter_max" : 430.566244241
        },
        "miles" : {
          "estimated_diameter_min" : 0.1196481415,
          "estimated_diameter_max" : 0.2675413778
        },
        "feet" : {
          "estimated_diameter_min" : 631.7424027221,
          "estimated_diameter_max" : 1412.6189567557
        }
      },
      "is_potentially_hazardous_asteroid" : false,
      "close_approach_data" : [ {
        "close_approach_date" : "2010-12-08",
        "epoch_date_close_approach" : 1291795200000,
        "relative_velocity" : {
          "kilometers_per_second" : "18.4328741909",
          "kilometers_per_hour" : "66358.3470874063",
          "miles_per_hour" : "41232.4962777276"
        },
        "miss_distance" : {
          "astronomical" : "0.2484963783",
          "lunar" : "96.6650924683",
          "kilometers" : "37174532",
          "miles" : "23099182"
        },
        "orbiting_body" : "Earth"
      } ],
      "orbital_data" : {
        "orbit_id" : "15",
        "orbit_determination_date" : "2017-04-06 08:55:17",
        "orbit_uncertainty" : "2",
        "minimum_orbit_intersection" : ".0584728",
        "jupiter_tisserand_invariant" : "4.830",
        "epoch_osculation" : "2458000.5",
        "eccentricity" : ".3686675306374596",
        "semi_major_axis" : "1.275380783841178",
        "inclination" : "35.46024223502781",
        "ascending_node_longitude" : "84.13764518684415",
        "orbital_period" : "526.0878000543504",
        "perihelion_distance" : ".8051892996399834",
        "perihelion_argument" : "267.5508264964948",
        "aphelion_distance" : "1.745572268042373",
        "perihelion_time" : "2458092.019910917150",
        "mean_anomaly" : "297.3732522845614",
        "mean_motion" : ".6842964234540475",
        "equinox" : "J2000"
      }
    }, {
      "links" : {
        "self" : "https://api.nasa.gov/neo/rest/v1/neo/3698474?api_key=t0TVs3DtDT2H8Oy2Zy8m2eVrNsAVKAexjcZXUckd"
      },
      "neo_reference_id" : "3698474",
      "name" : "(2014 WC201)",
      "nasa_jpl_url" : "http://ssd.jpl.nasa.gov/sbdb.cgi?sstr=3698474",
      "absolute_magnitude_h" : 26.2,
      "estimated_diameter" : {
        "kilometers" : {
          "estimated_diameter_min" : 0.0152951935,
          "estimated_diameter_max" : 0.0342010925
        },
        "meters" : {
          "estimated_diameter_min" : 15.2951935344,
          "estimated_diameter_max" : 34.201092472
        },
        "miles" : {
          "estimated_diameter_min" : 0.0095039897,
          "estimated_diameter_max" : 0.021251567
        },
        "feet" : {
          "estimated_diameter_min" : 50.1810827555,
          "estimated_diameter_max" : 112.2083122258
        }
      },
      "is_potentially_hazardous_asteroid" : false,
      "close_approach_data" : [ {
        "close_approach_date" : "2010-12-08",
        "epoch_date_close_approach" : 1291795200000,
        "relative_velocity" : {
          "kilometers_per_second" : "8.9607117609",
          "kilometers_per_hour" : "32258.5623392503",
          "miles_per_hour" : "20044.2161379636"
        },
        "miss_distance" : {
          "astronomical" : "0.0770034676",
          "lunar" : "29.9543476105",
          "kilometers" : "11519554",
          "miles" : "7157919"
        },
        "orbiting_body" : "Earth"
      } ],
      "orbital_data" : {
        "orbit_id" : "12",
        "orbit_determination_date" : "2017-04-06 08:37:17",
        "orbit_uncertainty" : "7",
        "minimum_orbit_intersection" : ".00220122",
        "jupiter_tisserand_invariant" : "5.224",
        "epoch_osculation" : "2458000.5",
        "eccentricity" : ".3899853020404004",
        "semi_major_axis" : "1.198615064997196",
        "inclination" : "2.030700644861646",
        "ascending_node_longitude" : "253.6462482887461",
        "orbital_period" : "479.3116938938423",
        "perihelion_distance" : ".7311728068440904",
        "perihelion_argument" : "261.6917656214653",
        "aphelion_distance" : "1.666057323150302",
        "perihelion_time" : "2458009.629639749528",
        "mean_anomaly" : "353.1429373585069",
        "mean_motion" : ".7510770227102629",
        "equinox" : "J2000"
      }
    } ]
  }
}